[
    {
        "Altitude(m)": 556565.8172560923,
        "Argument of Periapsis(deg)": 0.026491964442854003,
        "Eccentricity": 0.0,
        "Inclination(deg)": 53.0,
        "Latitude(deg)": 38.17569599696192,
        "Longitude(deg)": -164.2862125875214,
        "Mean Anomaly(deg)": 129.45737147031036,
        "RAAN(deg)": 154.96057347411207,
        "Satellite Name": "Starlink Shell 1 687",
        "Satellite Number": 687,
        "Semi-Major Axis(m)": 6931778.249405717,
        "Time(s)": 760
    },
    {
        "Altitude(m)": 556482.447629666,
        "Argument of Periapsis(deg)": 0.02684054292236524,
        "Eccentricity": 0.0,
        "Inclination(deg)": 53.0,
        "Latitude(deg)": 37.768397281672684,
        "Longitude(deg)": -163.72289601659696,
        "Mean Anomaly(deg)": 130.08420267386703,
        "RAAN(deg)": 154.96005470403458,
        "Satellite Name": "Starlink Shell 1 687",
        "Satellite Number": 687,
        "Semi-Major Axis(m)": 6931778.249405717,
        "Time(s)": 770
    },
    {
        "Altitude(m)": 556399.1483514181,
        "Argument of Periapsis(deg)": 0.027189121401876473,
        "Eccentricity": 0.0,
        "Inclination(deg)": 53.0,
        "Latitude(deg)": 37.35800196748702,
        "Longitude(deg)": -163.16619375358803,
        "Mean Anomaly(deg)": 130.71103387742377,
        "RAAN(deg)": 154.95953593395714,
        "Satellite Name": "Starlink Shell 1 687",
        "Satellite Number": 687,
        "Semi-Major Axis(m)": 6931778.249405717,
        "Time(s)": 780
    },
    {
        "Altitude(m)": 556315.974690108,
        "Argument of Periapsis(deg)": 0.02753769988138771,
        "Eccentricity": 0.0,
        "Inclination(deg)": 53.0,
        "Latitude(deg)": 36.94458749266138,
        "Longitude(deg)": -162.61598502391143,
        "Mean Anomaly(deg)": 131.33786508098052,
        "RAAN(deg)": 154.95901716387965,
        "Satellite Name": "Starlink Shell 1 687",
        "Satellite Number": 687,
        "Semi-Major Axis(m)": 6931778.249405717,
        "Time(s)": 790
    },
    {
        "Altitude(m)": 556232.9820601436,
        "Argument of Periapsis(deg)": 0.02788627836089895,
        "Eccentricity": 0.0,
        "Inclination(deg)": 53.0,
        "Latitude(deg)": 36.52822959187176,
        "Longitude(deg)": -162.0721496851671,
        "Mean Anomaly(deg)": 131.96469628453718,
        "RAAN(deg)": 154.9584983938022,
        "Satellite Name": "Starlink Shell 1 687",
        "Satellite Number": 687,
        "Semi-Major Axis(m)": 6931778.249405717,
        "Time(s)": 800
    },
    {
        "Altitude(m)": 556150.2259931759,
        "Argument of Periapsis(deg)": 0.02823485684041019,
        "Eccentricity": 0.0,
        "Inclination(deg)": 53.0,
        "Latitude(deg)": 36.10900232352515,
        "Longitude(deg)": -161.5345678627309,
        "Mean Anomaly(deg)": 132.59152748809396,
        "RAAN(deg)": 154.9579796237247,
        "Satellite Name": "Starlink Shell 1 687",
        "Satellite Number": 687,
        "Semi-Major Axis(m)": 6931778.249405717,
        "Time(s)": 810
    },
    {
        "Altitude(m)": 556067.762109591,
        "Argument of Periapsis(deg)": 0.028583435319921423,
        "Eccentricity": 0.0,
        "Inclination(deg)": 53.0,
        "Latitude(deg)": 35.686978098277784,
        "Longitude(deg)": -161.00311957371252,
        "Mean Anomaly(deg)": 133.2183586916506,
        "RAAN(deg)": 154.95746085364723,
        "Satellite Name": "Starlink Shell 1 687",
        "Satellite Number": 687,
        "Semi-Major Axis(m)": 6931778.249405717,
        "Time(s)": 820
    },
    {
        "Altitude(m)": 555985.6460898852,
        "Argument of Periapsis(deg)": 0.028932013799432665,
        "Eccentricity": 0.0,
        "Inclination(deg)": 53.0,
        "Latitude(deg)": 35.26222770858617,
        "Longitude(deg)": -160.4776858527454,
        "Mean Anomaly(deg)": 133.84518989520737,
        "RAAN(deg)": 154.95694208356974,
        "Satellite Name": "Starlink Shell 1 687",
        "Satellite Number": 687,
        "Semi-Major Axis(m)": 6931778.249405717,
        "Time(s)": 830
    },
    {
        "Altitude(m)": 555903.933646019,
        "Argument of Periapsis(deg)": 0.029280592278943897,
        "Eccentricity": 0.0,
        "Inclination(deg)": 53.0,
        "Latitude(deg)": 34.83482035912699,
        "Longitude(deg)": -159.95814835445785,
        "Mean Anomaly(deg)": 134.4720210987641,
        "RAAN(deg)": 154.9564233134923,
        "Satellite Name": "Starlink Shell 1 687",
        "Satellite Number": 687,
        "Semi-Major Axis(m)": 6931778.249405717,
        "Time(s)": 840
    },
    {
        "Altitude(m)": 555822.680492648,
        "Argument of Periapsis(deg)": 0.029629170758455132,
        "Eccentricity": 0.0,
        "Inclination(deg)": 53.0,
        "Latitude(deg)": 34.40482369793776,
        "Longitude(deg)": -159.44438894606932,
        "Mean Anomaly(deg)": 135.09885230232078,
        "RAAN(deg)": 154.95590454341482,
        "Satellite Name": "Starlink Shell 1 687",
        "Satellite Number": 687,
        "Semi-Major Axis(m)": 6931778.249405717,
        "Time(s)": 850
    },
    {
        "Altitude(m)": 555741.9423183422,
        "Argument of Periapsis(deg)": 0.02997774923796637,
        "Eccentricity": 0.0,
        "Inclination(deg)": 53.0,
        "Latitude(deg)": 33.972303848145486,
        "Longitude(deg)": -158.936290971644,
        "Mean Anomaly(deg)": 135.7256835058775,
        "RAAN(deg)": 154.95538577333735,
        "Satellite Name": "Starlink Shell 1 687",
        "Satellite Number": 687,
        "Semi-Major Axis(m)": 6931778.249405717,
        "Time(s)": 860
    },
    {
        "Altitude(m)": 555661.7747567646,
        "Argument of Periapsis(deg)": 0.030326327717477602,
        "Eccentricity": 0.0,
        "Inclination(deg)": 53.0,
        "Latitude(deg)": 33.5373254401496,
        "Longitude(deg)": -158.43373798611808,
        "Mean Anomaly(deg)": 136.3525147094342,
        "RAAN(deg)": 154.95486700325986,
        "Satellite Name": "Starlink Shell 1 687",
        "Satellite Number": 687,
        "Semi-Major Axis(m)": 6931778.249405717,
        "Time(s)": 870
    },
    {
        "Altitude(m)": 555582.2333578316,
        "Argument of Periapsis(deg)": 0.030674906196988847,
        "Eccentricity": 0.0,
        "Inclination(deg)": 53.0,
        "Latitude(deg)": 33.099951644153,
        "Longitude(deg)": -157.93661500253626,
        "Mean Anomaly(deg)": 136.97934591299094,
        "RAAN(deg)": 154.9543482331824,
        "Satellite Name": "Starlink Shell 1 687",
        "Satellite Number": 687,
        "Semi-Major Axis(m)": 6931778.249405717,
        "Time(s)": 880
    },
    {
        "Altitude(m)": 555503.3735588698,
        "Argument of Periapsis(deg)": 0.031023484676500086,
        "Eccentricity": 0.0,
        "Inclination(deg)": 53.0,
        "Latitude(deg)": 32.66024420292857,
        "Longitude(deg)": -157.44480805057697,
        "Mean Anomaly(deg)": 137.60617711654766,
        "RAAN(deg)": 154.9538294631049,
        "Satellite Name": "Starlink Shell 1 687",
        "Satellite Number": 687,
        "Semi-Major Axis(m)": 6931778.249405717,
        "Time(s)": 890
    },
    {
        "Altitude(m)": 555425.2506557667,
        "Argument of Periapsis(deg)": 0.03137206315601132,
        "Eccentricity": 0.0,
        "Inclination(deg)": 53.0,
        "Latitude(deg)": 32.21826346472806,
        "Longitude(deg)": -156.95820372782254,
        "Mean Anomaly(deg)": 138.23300832010437,
        "RAAN(deg)": 154.95331069302748,
        "Satellite Name": "Starlink Shell 1 687",
        "Satellite Number": 687,
        "Semi-Major Axis(m)": 6931778.249405717,
        "Time(s)": 900
    },
    {
        "Altitude(m)": 555347.9197741648,
        "Argument of Periapsis(deg)": 0.03172064163552255,
        "Eccentricity": 0.0,
        "Inclination(deg)": 53.0,
        "Latitude(deg)": 31.774068416249758,
        "Longitude(deg)": -156.4766902571129,
        "Mean Anomaly(deg)": 138.85983952366107,
        "RAAN(deg)": 154.95279192294998,
        "Satellite Name": "Starlink Shell 1 687",
        "Satellite Number": 687,
        "Semi-Major Axis(m)": 6931778.249405717,
        "Time(s)": 910
    },
    {
        "Altitude(m)": 555271.4358406934,
        "Argument of Periapsis(deg)": 0.0320692201150338,
        "Eccentricity": 0.0,
        "Inclination(deg)": 53.0,
        "Latitude(deg)": 31.32771671557962,
        "Longitude(deg)": -156.00015702468107,
        "Mean Anomaly(deg)": 139.48667072721778,
        "RAAN(deg)": 154.95227315287252,
        "Satellite Name": "Starlink Shell 1 687",
        "Satellite Number": 687,
        "Semi-Major Axis(m)": 6931778.249405717,
        "Time(s)": 920
    },
    {
        "Altitude(m)": 555195.8535542315,
        "Argument of Periapsis(deg)": 0.032417798594545036,
        "Eccentricity": 0.0,
        "Inclination(deg)": 53.0,
        "Latitude(deg)": 30.879264725039206,
        "Longitude(deg)": -155.52849411236994,
        "Mean Anomaly(deg)": 140.1135019307745,
        "RAAN(deg)": 154.95175438279503,
        "Satellite Name": "Starlink Shell 1 687",
        "Satellite Number": 687,
        "Semi-Major Axis(m)": 6931778.249405717,
        "Time(s)": 930
    },
    {
        "Altitude(m)": 555121.2273572602,
        "Argument of Periapsis(deg)": 0.03276637707405627,
        "Eccentricity": 0.0,
        "Inclination(deg)": 53.0,
        "Latitude(deg)": 30.428767543878113,
        "Longitude(deg)": -155.06159333720626,
        "Mean Anomaly(deg)": 140.74033313433125,
        "RAAN(deg)": 154.95123561271754,
        "Satellite Name": "Starlink Shell 1 687",
        "Satellite Number": 687,
        "Semi-Major Axis(m)": 6931778.249405717,
        "Time(s)": 940
    }
]